0 CZ-4B DEB
1 29215U 02024F   13282.39890227  .00000198  00000-0  24905-3 0  9499
2 29215 098.7784 332.2084 0250326 123.6159 295.2769 13.61408070556838
0 CZ-4B DEB
1 29215U 02024F   13285.41202669  .00000193  00000-0  24368-3 0  9502
2 29215 098.7780 334.9209 0250291 115.7885 302.7765 13.61409049557244
0 CZ-4B DEB
1 29215U 02024F   13287.92378823  .00000308  00000-0  36608-3 0  9515
2 29215 098.7772 337.1820 0250257 109.2616 013.0798 13.61410598557587
0 CZ-4B DEB
1 29215U 02024F   13289.98098502  .00000236  00000-0  28854-3 0  9521
2 29215 098.7766 339.0337 0250212 103.9156 015.5432 13.61411890557864
0 CZ-4B DEB
1 29215U 02024F   13292.39387969  .00000232  00000-0  28433-3 0  9538
2 29215 098.7762 341.2052 0250151 097.6433 321.3208 13.61413249558194
0 CZ-4B DEB
1 29215U 02024F   13295.40692310  .00000242  00000-0  29554-3 0  9549
2 29215 098.7762 343.9166 0250065 089.8077 328.4922 13.61415092558605
